Nombre;Dirección;Código postal;Localidad;Provincia;Teléfono;Web;lat;lng
Punt Blau 1 (Carretera de Castellar);Carretera de Prats de Lluçanès, 899;08207;Sabadell;Barcelona;900222234;http://bit.ly/10cfCOC;41.5741446;2.0940998
Punt Blau 2 (Parc Central del Vallès);Carrer Moragas i Barret;08204;Sabadell;Barcelona;900222234;http://bit.ly/18DIbbF;41.5222042;2.1091547
Punt Blau 3 (Can Llong);Ronda Europa 310;08206;Sabadell;Barcelona;900222234;http://bit.ly/15gbEMB;41.5562405;2.0812215
Punt Verd de Zona - Deixalleria de Les Corts-Pedralbes;Avinguda Esplugues, 58;08034;Barcelona;Barcelona;932032219;http://bit.ly/101SgOy;41.3890168;2.1081328
Punt Verd de Zona - Deixalleria de Vallbona;Castelladral, 6;08033;Barcelona;Barcelona;933502140;http://bit.ly/126qorv;41.4638776;2.185253
Punt Verd de Zona - Deixalleria de Montjuïc;Carrer Foc 56;08038;Barcelona;Barcelona;932231646;http://bit.ly/15gbLHT;41.3553116;2.1396156
Punt Verd de Zona - Deixalleria Fòrum;Avinguda Litoral 115;08005;Barcelona;Barcelona;933560929;http://bit.ly/ZGTeQL;41.403673;2.2158595
Punt Verd de Zona - Deixalleria de Collserola;Carrer Collserola 2;08035;Barcelona;Barcelona;934178128;http://bit.ly/18DIF1g;41.4162968;2.1361024
Punt Verd de Zona - Deixalleria Sant Andreu;Carrer Caracas 46;08030;Barcelona;Barcelona;933457623;http://bit.ly/ZuUBhQ;41.4455409;2.2023375
Punt Verd de Zona - Deixalleria Vall d'Hebron;Avinguda Estatut de Catalunya 23;08035;Barcelona;Barcelona;934280496;http://bit.ly/128k7vt;41.432327;2.15347
Punt Verd de Barri - Vallvidrera;Carrer Reis Catòlics 40;08017;Barcelona;Barcelona;650437469;http://bit.ly/137s1HK;41.4164437;2.1014137
Punt Verd de Barri - Sant Andreu;Carrer Rovira i Virgili 14;08030;Barcelona;Barcelona;933456358;http://bit.ly/YuCQnE;41.428138;2.1889936
Punt Verd de Barri - Folch i Torres;Plaça Josep M Folch i Torres 1;08001;Barcelona;Barcelona;690860273;http://bit.ly/128kzKa;41.376434;2.1670871
Punt Verd de Barri - Barcardí;Travessera de les Corts 122;08028;Barcelona;Barcelona;934901397;http://bit.ly/128kPZF;41.3799469;2.1259914
Punt Verd de Barri - Turó de la Peira;Passeig Peira 1;08031;Barcelona;Barcelona;933575063;http://bit.ly/10flAhq;41.431112;2.169626
Punt Verd de Barri - Ciutat Meridiana;Carrer Costabona 4;08033;Barcelona;Barcelona;932765890;http://bit.ly/169hsqH;41.4616847;2.177785
Punt Verd de Barri - Les Roquetes;Carrer Aiguablava 1;08042;Barcelona;Barcelona;933536901;http://bit.ly/11L3O7p;41.4474105;2.180266
Punt Verd de Barri - Clot;Carrer Escultors Claperós 51;08018;Barcelona;Barcelona;679952176;http://bit.ly/ZIBEfa;41.4070489;2.189572
Punt Verd de Barri - Barceloneta;Passeig Salvat Papasseit 3;08003;Barcelona;Barcelona;609116999;http://bit.ly/12E6cvR;41.3816961;2.1917977
Punt Verd de Barri - Les Corts;Carrer Nicaragua 101;08029;Barcelona;Barcelona;934104701;http://bit.ly/ZxmmX5;41.3856918;2.1380072
Punt Verd de Barri - La Bordeta;Carrer Corral 2;08014;Barcelona;Barcelona;934329735;http://bit.ly/12E6EKD;41.3702383;2.1405678
Punt Verd de Barri - Fort Pienc;Carrer Alí Bei 89;08013;Barcelona;Barcelona;618711750;http://bit.ly/18mDhT1;41.3951907;2.1828407
Punt Verd de Barri - Sagrada Família;Carrer Lepant 281;08013;Barcelona;Barcelona;934366312;http://bit.ly/15iBlvF;41.405023;2.1757284
Punt Verd de Barri - Sant Martí de Provençals;Carrer Andrade 154;08020;Barcelona;Barcelona;933037008;http://bit.ly/139CgLB;41.4157803;2.201056
Punt Verd de Barri - Sant Andreu Nord;Plaça Miquel Casablancas i Joanico 4;08030;Barcelona;Barcelona;933468029;http://bit.ly/YwCMnw;41.439847;2.186192
Punt Verd de Barri - Poble Sec;Carrer Palaudàries 12;08004;Barcelona;Barcelona;650437468;http://bit.ly/1173XXC;41.3850639;2.1734035
Punt Verd de Barri - Horta-Carmel;Carrer Dante Alighieri 77;08032;Barcelona;Barcelona;630359356;http://bit.ly/10zLtHU;41.4275839;2.1577167
Punt Verd de Barri - Horta-Guinardó;Carrer Mas Casanovas 74;08041;Barcelona;Barcelona;690662352;http://bit.ly/15iEnA9;41.4144521;2.1727264
Punt Verd de Barri - Gal·la Placídia;Plaça Gal.la Placídia 12;08006;Barcelona;Barcelona;690662353;http://bit.ly/128nPVW;41.3991111;2.1534235
Punt Verd de Barri - Nova Esquerra de l'Eixample;Carrer Rocafort 226;08029;Barcelona;Barcelona;660809341;http://bit.ly/169jR4H;41.3852864;2.1454802
Punt Verd de Barri Col·laborador - Can Basilio;Carrer Jaume Giralt 49;08003;Barcelona;Barcelona;933190125;http://bit.ly/13fDtAb;41.387818;2.178895
Punt Verd de Barri Col·laborador - Tabuenca;Carrer Guilleries 24;08012;Barcelona;Barcelona;932183097;http://bit.ly/13VCV20;41.4036409;2.1563837
Punto Limpio de Arrecife;Avenida de los Geranios s/n;35500;Arrecife;Las Palmas;928810100;http://bit.ly/126qwr4;28.9762136;-13.5561222
Punto Limpio de Playa Honda;Zona industrial de Playa Honda, C/ Arrecife;35509;Playa Honda;Las Palmas;928810100;http://bit.ly/126qwr4;28.9539476;-13.5914198
Punto Limpio de Playa Blanca;C/ Femés;35580;Playa Blanca;Las Palmas;928810100;http://bit.ly/126qwr4;28.865;-13.8305556
Punto Limpio de Puerto del Carmen;C/ Tías;35510;Puerto del Carmen;Las Palmas;928810100;http://bit.ly/126qwr4;28.9239086;-13.6632734
Punto Limpio Lomo del Jable (Lajares);La Oliva;35640;La Oliva;Las Palmas;928862300;http://bit.ly/109qITq;28.6100767;-13.9267252
Punto Limpio Risco Prieto;Puerto del Rosario;35649;Puerto del Rosario;Las Palmas;928862300;http://bit.ly/109qITq;28.5310413;-13.9376021
Punto Limpio Fuente Bartolo;Tuineje;35629;Tuineje;Las Palmas;928862300;http://bit.ly/109qITq;28.327262;-14.047254